FLOCK 4G-25             
1 62646U 25009AP  26068.74572546  .00010373  00000+0  38902-3 0  9990
2 62646  97.4049 151.4141 0000828 316.3151  43.8023 15.27424196 63734
STARLINK-34256          
1 64249U 25119S   26068.04946355  .00029230  00000+0  10672-2 0  9994
2 64249  43.0035 310.4731 0002192 269.1692  90.8908 15.27589160 44073
